{"type": "FeatureCollection", "features": [ {"type": "Feature", "properties": {"norad_id": 57401, "name": "TIANMU-1 09", "group": "weather", "lat": 37.094810088241104, "lon": -126.17117459531734, "alt_km": 478.71056330849206, "timestamp": "2025-12-25T09:48:51.931195+00:00", "meta": {"OBJECT_NAME": "TIANMU-1 09", "OBJECT_ID": "2023-101C", "EPOCH": "2025-12-24T22:11:37.281984", "MEAN_MOTION": 15.28258189, "ECCENTRICITY": 0.00062324, "INCLINATION": 97.2801, "RA_OF_ASC_NODE": 47.8084, "ARG_OF_PERICENTER": 50.3076, "MEAN_ANOMALY": 309.8712, "EPHEMERIS_TYPE": 0, "CLASSIFICATION_TYPE": "U", "NORAD_CAT_ID": 57401, "ELEMENT_SET_NO": 999, "REV_AT_EPOCH": 13501, "BSTAR": 0.00028071882, "MEAN_MOTION_DOT": 7.66e-05, "MEAN_MOTION_DDOT": 0}, "tle": {"line1": "1 57401U 23101C   25358.92473706  .00007660  00000+0  28072-3 0  9995", "line2": "2 57401  97.2801  47.8084 0006232  50.3076 309.8712 15.28258189135010"}}, "geometry": {"type": "Point", "coordinates": [-126.17117459531734, 37.094810088241104]}}, {"type": "Feature", "properties": {"norad_id": 57402, "name": "TIANMU-1 10", "group": "weather", "lat": -45.769389063524706, "lon": 56.69939556095343, "alt_km": 488.04588823501126, "timestamp": "2025-12-25T09:48:51.931206+00:00", "meta": {"OBJECT_NAME": "TIANMU-1 10", "OBJECT_ID": "2023-101D", "EPOCH": "2025-12-24T23:00:58.749120", "MEAN_MOTION": 15.2825076, "ECCENTRICITY": 0.00079441, "INCLINATION": 97.2882, "RA_OF_ASC_NODE": 48.7048, "ARG_OF_PERICENTER": 47.6481, "MEAN_ANOMALY": 312.543, "EPHEMERIS_TYPE": 0, "CLASSIFICATION_TYPE": "U", "NORAD_CAT_ID": 57402, "ELEMENT_SET_NO": 999, "REV_AT_EPOCH": 13501, "BSTAR": 0.00030512993, "MEAN_MOTION_DOT": 8.334e-05, "MEAN_MOTION_DDOT": 0}, "tle": {"line1": "1 57402U 23101D   25358.95901330  .00008334  00000+0  30513-3 0  9990", "line2": "2 57402  97.2882  48.7048 0007944  47.6481 312.5430 15.28250760135015"}}, "geometry": {"type": "Point", "coordinates": [56.69939556095343, -45.769389063524706]}}, {"type": "Feature", "properties": {"norad_id": 57490, "name": "FENGYUN 3F", "group": "weather", "lat": -35.69872580072741, "lon": 73.81841984622766, "alt_km": 832.4713499043537, "timestamp": "2025-12-25T09:48:51.931216+00:00", "meta": {"OBJECT_NAME": "FENGYUN 3F", "OBJECT_ID": "2023-111A", "EPOCH": "2025-12-24T22:08:45.518784", "MEAN_MOTION": 14.19896648, "ECCENTRICITY": 8.301e-05, "INCLINATION": 98.7067, "RA_OF_ASC_NODE": 67.0187, "ARG_OF_PERICENTER": 117.1832, "MEAN_ANOMALY": 242.9429, "EPHEMERIS_TYPE": 0, "CLASSIFICATION_TYPE": "U", "NORAD_CAT_ID": 57490, "ELEMENT_SET_NO": 999, "REV_AT_EPOCH": 12413, "BSTAR": 5.574962e-05, "MEAN_MOTION_DOT": 7.5e-07, "MEAN_MOTION_DDOT": 0}, "tle": {"line1": "1 57490U 23111A   25358.92274906  .00000075  00000+0  55750-4 0  9992", "line2": "2 57490  98.7067  67.0187 0000830 117.1832 242.9429 14.19896648124136"}}, "geometry": {"type": "Point", "coordinates": [73.81841984622766, -35.69872580072741]}}, {"type": "Feature", "properties": {"norad_id": 58584, "name": "ARKTIKA-M 2", "group": "weather", "lat": 55.16249043036839, "lon": -139.9727234125614, "alt_km": 32624.591383249277, "timestamp": "2025-12-25T09:48:51.931228+00:00", "meta": {"OBJECT_NAME": "ARKTIKA-M 2", "OBJECT_ID": "2023-198A", "EPOCH": "2025-12-23T19:04:51.780000", "MEAN_MOTION": 2.00602438, "ECCENTRICITY": 0.68658211, "INCLINATION": 63.2256, "RA_OF_ASC_NODE": 173.6885, "ARG_OF_PERICENTER": 268.0594, "MEAN_ANOMALY": 18.8414, "EPHEMERIS_TYPE": 0, "CLASSIFICATION_TYPE": "U", "NORAD_CAT_ID": 58584, "ELEMENT_SET_NO": 999, "REV_AT_EPOCH": 1480, "BSTAR": 0, "MEAN_MOTION_DOT": 2.16e-06, "MEAN_MOTION_DDOT": 0}, "tle": {"line1": "1 58584U 23198A   25357.79504375  .00000216  00000+0  00000+0 0  9992", "line2": "2 58584  63.2256 173.6885 6865821 268.0594  18.8414  2.00602438 14808"}}, "geometry": {"type": "Point", "coordinates": [-139.9727234125614, 55.16249043036839]}}, {"type": "Feature", "properties": {"norad_id": 58645, "name": "TIANMU-1 11", "group": "weather", "lat": -25.7015682385954, "lon": 22.376144718750528, "alt_km": 496.17099148023954, "timestamp": "2025-12-25T09:48:51.931240+00:00", "meta": {"OBJECT_NAME": "TIANMU-1 11", "OBJECT_ID": "2023-205A", "EPOCH": "2025-12-24T22:54:09.355680", "MEAN_MOTION": 15.24742937, "ECCENTRICITY": 0.00075604, "INCLINATION": 97.3596, "RA_OF_ASC_NODE": 18.3628, "ARG_OF_PERICENTER": 258.0728, "MEAN_ANOMALY": 101.9662, "EPHEMERIS_TYPE": 0, "CLASSIFICATION_TYPE": "U", "NORAD_CAT_ID": 58645, "ELEMENT_SET_NO": 999, "REV_AT_EPOCH": 11095, "BSTAR": 0.00027547539, "MEAN_MOTION_DOT": 6.756e-05, "MEAN_MOTION_DDOT": 0}, "tle": {"line1": "1 58645U 23205A   25358.95427495  .00006756  00000+0  27548-3 0  9990", "line2": "2 58645  97.3596  18.3628 0007560 258.0728 101.9662 15.24742937110952"}}, "geometry": {"type": "Point", "coordinates": [22.376144718750528, -25.7015682385954]}}, {"type": "Feature", "properties": {"norad_id": 58646, "name": "TIANMU-1 12", "group": "weather", "lat": -1.1254843005916206, "lon": -161.5347354462877, "alt_km": 492.6552049435104, "timestamp": "2025-12-25T09:48:51.931250+00:00", "meta": {"OBJECT_NAME": "TIANMU-1 12", "OBJECT_ID": "2023-205B", "EPOCH": "2025-12-24T23:34:17.452416", "MEAN_MOTION": 15.24630815, "ECCENTRICITY": 0.00059848, "INCLINATION": 97.3585, "RA_OF_ASC_NODE": 18.1915, "ARG_OF_PERICENTER": 235.6966, "MEAN_ANOMALY": 124.3706, "EPHEMERIS_TYPE": 0, "CLASSIFICATION_TYPE": "U", "NORAD_CAT_ID": 58646, "ELEMENT_SET_NO": 999, "REV_AT_EPOCH": 11094, "BSTAR": 0.00026860302, "MEAN_MOTION_DOT": 6.562e-05, "MEAN_MOTION_DDOT": 0}, "tle": {"line1": "1 58646U 23205B   25358.98214644  .00006562  00000+0  26860-3 0  9995", "line2": "2 58646  97.3585  18.1915 0005984 235.6966 124.3706 15.24630815110949"}}, "geometry": {"type": "Point", "coordinates": [-161.5347354462877, -1.1254843005916206]}}, {"type": "Feature", "properties": {"norad_id": 58647, "name": "TIANMU-1 13", "group": "weather", "lat": -1.0504860994278897, "lon": 18.953012245417344, "alt_km": 498.80523390760936, "timestamp": "2025-12-25T09:48:51.931260+00:00", "meta": {"OBJECT_NAME": "TIANMU-1 13", "OBJECT_ID": "2023-205C", "EPOCH": "2025-12-25T00:22:06.111264", "MEAN_MOTION": 15.24674115, "ECCENTRICITY": 0.00066505, "INCLINATION": 97.3613, "RA_OF_ASC_NODE": 18.4304, "ARG_OF_PERICENTER": 213.626, "MEAN_ANOMALY": 146.4557, "EPHEMERIS_TYPE": 0, "CLASSIFICATION_TYPE": "U", "NORAD_CAT_ID": 58647, "ELEMENT_SET_NO": 999, "REV_AT_EPOCH": 11094, "BSTAR": 0.00028852855, "MEAN_MOTION_DOT": 7.064e-05, "MEAN_MOTION_DDOT": 0}, "tle": {"line1": "1 58647U 23205C   25359.01534851  .00007064  00000+0  28853-3 0  9998", "line2": "2 58647  97.3613  18.4304 0006650 213.6260 146.4557 15.24674115110941"}}, "geometry": {"type": "Point", "coordinates": [18.953012245417344, -1.0504860994278897]}}, {"type": "Feature", "properties": {"norad_id": 58648, "name": "TIANMU-1 14", "group": "weather", "lat": 82.60078564354471, "lon": -65.88095290720966, "alt_km": 487.51274626683426, "timestamp": "2025-12-25T09:48:51.931269+00:00", "meta": {"OBJECT_NAME": "TIANMU-1 14", "OBJECT_ID": "2023-205D", "EPOCH": "2025-12-24T23:58:23.568096", "MEAN_MOTION": 15.24657284, "ECCENTRICITY": 0.00073413, "INCLINATION": 97.3545, "RA_OF_ASC_NODE": 17.7517, "ARG_OF_PERICENTER": 219.8436, "MEAN_ANOMALY": 140.2263, "EPHEMERIS_TYPE": 0, "CLASSIFICATION_TYPE": "U", "NORAD_CAT_ID": 58648, "ELEMENT_SET_NO": 999, "REV_AT_EPOCH": 11094, "BSTAR": 0.00029080909, "MEAN_MOTION_DOT": 7.118e-05, "MEAN_MOTION_DDOT": 0}, "tle": {"line1": "1 58648U 23205D   25358.99888389  .00007118  00000+0  29081-3 0  9997", "line2": "2 58648  97.3545  17.7517 0007341 219.8436 140.2263 15.24657284110949"}}, "geometry": {"type": "Point", "coordinates": [-65.88095290720966, 82.60078564354471]}}, {"type": "Feature", "properties": {"norad_id": 58660, "name": "TIANMU-1 19", "group": "weather", "lat": 41.43825982681922, "lon": -62.95354748825608, "alt_km": 476.74092351456693, "timestamp": "2025-12-25T09:48:51.931281+00:00", "meta": {"OBJECT_NAME": "TIANMU-1 19", "OBJECT_ID": "2023-208A", "EPOCH": "2025-12-24T22:12:38.547360", "MEAN_MOTION": 15.28067588, "ECCENTRICITY": 0.00047773, "INCLINATION": 97.439, "RA_OF_ASC_NODE": 109.9401, "ARG_OF_PERICENTER": 201.2718, "MEAN_ANOMALY": 158.8323, "EPHEMERIS_TYPE": 0, "CLASSIFICATION_TYPE": "U", "NORAD_CAT_ID": 58660, "ELEMENT_SET_NO": 999, "REV_AT_EPOCH": 11068, "BSTAR": 0.0003869491, "MEAN_MOTION_DOT": 0.00010524, "MEAN_MOTION_DDOT": 0}, "tle": {"line1": "1 58660U 23208A   25358.92544615  .00010524  00000+0  38695-3 0  9994", "line2": "2 58660  97.4390 109.9401 0004777 201.2718 158.8323 15.28067588110685"}}, "geometry": {"type": "Point", "coordinates": [-62.95354748825608, 41.43825982681922]}}, {"type": "Feature", "properties": {"norad_id": 58661, "name": "TIANMU-1 20", "group": "weather", "lat": -81.8278659285839, "lon": -134.49618480735475, "alt_km": 482.55784431992925, "timestamp": "2025-12-25T09:48:51.931292+00:00", "meta": {"OBJECT_NAME": "TIANMU-1 20", "OBJECT_ID": "2023-208B", "EPOCH": "2025-12-24T21:39:33.562656", "MEAN_MOTION": 15.29257249, "ECCENTRICITY": 0.00067943, "INCLINATION": 97.4327, "RA_OF_ASC_NODE": 110.3766, "ARG_OF_PERICENTER": 215.4932, "MEAN_ANOMALY": 144.5857, "EPHEMERIS_TYPE": 0, "CLASSIFICATION_TYPE": "U", "NORAD_CAT_ID": 58661, "ELEMENT_SET_NO": 999, "REV_AT_EPOCH": 11075, "BSTAR": 0.00033456852, "MEAN_MOTION_DOT": 9.429e-05, "MEAN_MOTION_DDOT": 0}, "tle": {"line1": "1 58661U 23208B   25358.90247179  .00009429  00000+0  33457-3 0  9991", "line2": "2 58661  97.4327 110.3766 0006794 215.4932 144.5857 15.29257249110750"}}, "geometry": {"type": "Point", "coordinates": [-134.49618480735475, -81.8278659285839]}}]}